{
  "norad_id": 45227,
  "name": "STARLINK-1221",
  "history": [
    {
      "epoch": "2026-03-28T15:20:46.224096Z",
      "apogee_km": 440.870085170769,
      "perigee_km": 435.86908694884096,
      "latitude_deg": 5.161371199355621e-05,
      "longitude_deg": 123.5207574163218,
      "height_km": 438.48480663625844,
      "semi_major_axis_km": 6816.506586059805,
      "eccentricity": 0.00036683,
      "inclination_deg": 53.0652,
      "raan_deg": 179.7703,
      "arg_perigee_deg": 71.9666,
      "mean_anomaly_deg": 288.1739,
      "mean_motion_rev_day": 15.4262361
    },
    {
      "epoch": "2026-03-28T23:07:14.321280Z",
      "apogee_km": 440.8406600820181,
      "perigee_km": 435.8210131671276,
      "latitude_deg": 2.2851306929891887e-06,
      "longitude_deg": 5.047262615633919,
      "height_km": 438.5022123291932,
      "semi_major_axis_km": 6816.467836624573,
      "eccentricity": 0.0003682,
      "inclination_deg": 53.0651,
      "raan_deg": 178.2332,
      "arg_perigee_deg": 73.3801,
      "mean_anomaly_deg": 286.7608,
      "mean_motion_rev_day": 15.42636764
    },
    {
      "epoch": "2026-03-30T06:13:04.130112Z",
      "apogee_km": 440.7172071125069,
      "perigee_km": 435.59680705438586,
      "latitude_deg": 2.5563577904822137e-05,
      "longitude_deg": -108.83317134415525,
      "height_km": 438.41103165842077,
      "semi_major_axis_km": 6816.294007083447,
      "eccentricity": 0.0003756,
      "inclination_deg": 53.0658,
      "raan_deg": 172.0874,
      "arg_perigee_deg": 75.6364,
      "mean_anomaly_deg": 284.5058,
      "mean_motion_rev_day": 15.42695775
    },
    {
      "epoch": "2026-03-30T12:26:13.587648Z",
      "apogee_km": 440.6555582113306,
      "perigee_km": 435.58617091229826,
      "latitude_deg": 1.6960566040473154e-05,
      "longitude_deg": 156.3928988052371,
      "height_km": 438.3643389581675,
      "semi_major_axis_km": 6816.257864561814,
      "eccentricity": 0.00037186,
      "inclination_deg": 53.0654,
      "raan_deg": 170.8583,
      "arg_perigee_deg": 75.2414,
      "mean_anomaly_deg": 284.9003,
      "mean_motion_rev_day": 15.42708045
    },
    {
      "epoch": "2026-03-31T14:52:06.937536Z",
      "apogee_km": 440.51973106073274,
      "perigee_km": 435.44036063816566,
      "latitude_deg": 5.809554976190343e-05,
      "longitude_deg": 113.61013722183321,
      "height_km": 438.28477143861716,
      "semi_major_axis_km": 6816.117045849449,
      "eccentricity": 0.0003726,
      "inclination_deg": 53.0656,
      "raan_deg": 165.6333,
      "arg_perigee_deg": 76.6958,
      "mean_anomaly_deg": 283.4463,
      "mean_motion_rev_day": 15.42755853
    },
    {
      "epoch": "2026-04-01T11:04:49.352448Z",
      "apogee_km": 440.4288862568419,
      "perigee_km": 435.3523089021646,
      "latitude_deg": 3.642914815413857e-05,
      "longitude_deg": 165.6065249399667,
      "height_km": 438.26148484567943,
      "semi_major_axis_km": 6816.027597579503,
      "eccentricity": 0.0003724,
      "inclination_deg": 53.0652,
      "raan_deg": 161.6365,
      "arg_perigee_deg": 78.2198,
      "mean_anomaly_deg": 281.9225,
      "mean_motion_rev_day": 15.42786222
    },
    {
      "epoch": "2026-04-02T13:30:37.702368Z",
      "apogee_km": 440.314214742084,
      "perigee_km": 435.1660464278111,
      "latitude_deg": -2.2471340698339364e-06,
      "longitude_deg": 122.8435935602322,
      "height_km": 438.14992158768194,
      "semi_major_axis_km": 6815.877130584947,
      "eccentricity": 0.00037766,
      "inclination_deg": 53.065,
      "raan_deg": 156.4105,
      "arg_perigee_deg": 79.271,
      "mean_anomaly_deg": 280.872,
      "mean_motion_rev_day": 15.4283731
    },
    {
      "epoch": "2026-04-02T21:17:01.814784Z",
      "apogee_km": 440.26055766224636,
      "perigee_km": 435.083950533759,
      "latitude_deg": 3.438770776388699e-05,
      "longitude_deg": 4.387312036173557,
      "height_km": 438.08519239532916,
      "semi_major_axis_km": 6815.809254098002,
      "eccentricity": 0.00037975,
      "inclination_deg": 53.0646,
      "raan_deg": 154.8739,
      "arg_perigee_deg": 79.4033,
      "mean_anomaly_deg": 280.74,
      "mean_motion_rev_day": 15.42860357
    }
  ]
}